NORAD_CAT_ID,OBJECT_NAME,OBJECT_TYPE,EPOCH,MEAN_MOTION,ECCENTRICITY,INCLINATION,RA_OF_ASC_NODE,ARG_OF_PERICENTER,MEAN_ANOMALY,BSTAR,MEAN_MOTION_DOT,MEAN_MOTION_DDOT,TLE_LINE0,TLE_LINE1,TLE_LINE2,SEMIMAJOR_AXIS,PERIOD,APOGEE,PERIGEE,DECAYED
49433.0,STARLINK-3079,PAYLOAD,2022-08-02 20:00:24,15.08835727,0.0002225,53.2186,351.7395,42.7704,317.3461,2.0725e-05,4.2e-07,0.0,0 STARLINK-3079,1 49433U 21104AB  22214.83361958  .00000042  00000-0  20725-4 0  9991,2 49433  53.2186 351.7395 0002225  42.7704 317.3461 15.08835727 41509,6917.893,95.438,541.298,538.219,0.0
49433.0,STARLINK-3079,PAYLOAD,2022-08-03 02:21:57,15.08836568,0.0002108,53.2183,350.5498,43.4043,316.7114,1.0585e-05,-1.2e-06,0.0,0 STARLINK-3079,1 49433U 21104AB  22215.09857924 -.00000120  00000-0  10585-4 0  9994,2 49433  53.2183 350.5498 0002108  43.4043 316.7114 15.08836568 41547,6917.891,95.438,541.214,538.298,0.0
49433.0,STARLINK-3079,PAYLOAD,2022-08-03 11:54:15,15.08840436,0.0002077,53.2185,348.7656,43.3752,316.7403,1.2593e-05,-8.8e-07,0.0,0 STARLINK-3079,1 49433U 21104AB  22215.49601655 -.00000088  00000-0  12593-4 0  9990,2 49433  53.2185 348.7656 0002077  43.3752 316.7403 15.08840436 41602,6917.879,95.438,541.181,538.307,0.0
49433.0,STARLINK-3079,PAYLOAD,2022-08-03 18:15:48,15.08844528,0.0002096,53.2184,347.5762,43.4649,316.6508,1.2453e-05,-9.000000000000002e-07,0.0,0 STARLINK-3079,1 49433U 21104AB  22215.76097347 -.00000090  00000-0  12453-4 0  9995,2 49433  53.2184 347.5762 0002096  43.4649 316.6508 15.08844528 41648,6917.8669999999975,95.437,541.182,538.2819999999998,0.0
49433.0,STARLINK-3079,PAYLOAD,2022-08-04 11:45:02,15.08843297,0.0002171,53.2183,344.3057,45.0196,315.0972,-4.0551e-05,-9.34e-06,0.0,0 STARLINK-3079,1 49433U 21104AB  22216.48961417 -.00000934  00000-0 -40551-4 0  9991,2 49433  53.2183 344.3057 0002171  45.0196 315.0972 15.08843297 41750,6917.87,95.437,541.237,538.2330000000002,0.0
49433.0,STARLINK-3079,PAYLOAD,2022-08-04 18:06:35,15.08837882,0.0002073999999999,53.2186,343.1157,46.6764,313.4401,-9.8647e-05,-1.858e-05,0.0,0 STARLINK-3079,1 49433U 21104AB  22216.75457928 -.00001858  00000-0 -98647-4 0  9993,2 49433  53.2186 343.1157 0002074  46.6764 313.4401 15.08837882 41797,6917.887,95.438,541.187,538.317,0.0
49433.0,STARLINK-3079,PAYLOAD,2022-08-05 11:35:49,15.08832047,0.0001948,53.2179,339.844,39.1358,320.9775,0.00013237,1.819e-05,0.0,0 STARLINK-3079,1 49433U 21104AB  22217.48321644  .00001819  00000-0  13237-3 0  9995,2 49433  53.2179 339.8440 0001948  39.1358 320.9775 15.08832047 41909,6917.905,95.438,541.117,538.422,0.0
49433.0,STARLINK-3079,PAYLOAD,2022-08-05 19:32:45,15.08844971,0.0002104,53.2187,338.3584,40.37300000000001,319.7418,3.726e-05,3.05e-06,0.0,0 STARLINK-3079,1 49433U 21104AB  22217.81441115  .00000305  00000-0  37260-4 0  9990,2 49433  53.2187 338.3584 0002104  40.3730 319.7418 15.08844971 41958,6917.865,95.437,541.186,538.275,0.0
49433.0,STARLINK-3079,PAYLOAD,2022-08-06 11:26:38,15.08816744,0.0001971,53.2186,335.3847,45.4405,314.6748,-8.282799999999999e-05,-1.605e-05,0.0,0 STARLINK-3079,1 49433U 21104AB  22218.47683450 -.00001605  00000-0 -82828-4 0  9999,2 49433  53.2186 335.3847 0001971  45.4405 314.6748 15.08816744 42051,6917.951,95.439,541.18,538.453,0.0
49433.0,STARLINK-3079,PAYLOAD,2022-08-06 17:48:11,15.08817729,0.0002046999999999,53.2186,334.1957,41.684,318.4308,-6.608e-05,-1.339e-05,0.0,0 STARLINK-3079,1 49433U 21104AB  22218.74179721 -.00001339  00000-0 -66080-4 0  9996,2 49433  53.2186 334.1957 0002047  41.6840 318.4308 15.08817729 42098,6917.948,95.439,541.23,538.3969999999998,0.0
49433.0,STARLINK-3079,PAYLOAD,2022-08-07 12:52:48,15.08833819,0.0001843,53.2189,330.6262,58.7431,301.3741,2.2039e-06,-2.53e-06,0.0,0 STARLINK-3079,1 49433U 21104AB  22219.53667455 -.00000253  00000-0  22039-5 0  9990,2 49433  53.2189 330.6262 0001843  58.7431 301.3741 15.08833819 42213,6917.899,95.438,541.039,538.489,0.0
49433.0,STARLINK-3079,PAYLOAD,2022-08-07 16:03:34,15.08841084,0.0002044,53.2188,330.0324,45.2544,314.8615,6.1388e-05,6.89e-06,0.0,0 STARLINK-3079,1 49433U 21104AB  22219.66914935  .00000689  00000-0  61388-4 0  9993,2 49433  53.2188 330.0324 0002044  45.2544 314.8615 15.08841084 42239,6917.877,95.437,541.156,538.328,0.0
49433.0,STARLINK-3079,PAYLOAD,2022-08-08 11:08:10,15.08846926,0.0002031,53.2182,326.4645,41.8714,318.2433,0.00034128,5.149e-05,0.0,0 STARLINK-3079,1 49433U 21104AB  22220.46401588  .00005149  00000-0  34128-3 0  9995,2 49433  53.2182 326.4645 0002031  41.8714 318.2433 15.08846926 42354,6917.859,95.437,541.129,538.319,0.0
49433.0,STARLINK-3079,PAYLOAD,2022-08-08 15:54:20,15.08850453,0.000205,53.2184,325.5729,42.7068,317.4083,0.00035851,5.424e-05,0.0,0 STARLINK-3079,1 49433U 21104AB  22220.66273403  .00005424  00000-0  35851-3 0  9990,2 49433  53.2184 325.5729 0002050  42.7068 317.4083 15.08850453 42387,6917.848000000001,95.437,541.132,538.295,0.0
49433.0,STARLINK-3079,PAYLOAD,2022-08-08 23:51:16,15.08845518,0.0002101,53.2186,324.0865,44.6206,315.4955,0.00025277,3.738e-05,0.0,0 STARLINK-3079,1 49433U 21104AB  22220.99393801  .00003738  00000-0  25277-3 0  9998,2 49433  53.2186 324.0865 0002101  44.6206 315.4955 15.08845518 42434,6917.864000000001,95.437,541.182,538.275,0.0
49433.0,STARLINK-3079,PAYLOAD,2022-08-09 09:23:34,15.08862242,0.0001706999999999,53.2182,322.3025,75.0645,285.0536,7.927e-05,9.74e-06,0.0,0 STARLINK-3079,1 49433U 21104AB  22221.39137107  .00000974  00000-0  79270-4 0  9990,2 49433  53.2182 322.3025 0001707  75.0645 285.0536 15.08862242 42491,6917.812,95.436,540.8580000000002,538.497,0.0
49433.0,STARLINK-3079,PAYLOAD,2022-08-09 15:45:07,15.08857705,0.0001735,53.2184,321.1114,38.9854,321.1263,-1.2325e-05,-4.84e-06,0.0,0 STARLINK-3079,1 49433U 21104AB  22221.65633411 -.00000484  00000-0 -12325-4 0  9994,2 49433  53.2184 321.1114 0001735  38.9854 321.1263 15.08857705 42532,6917.826,95.436,540.8919999999998,538.491,0.0
49433.0,STARLINK-3079,PAYLOAD,2022-08-09 23:42:03,15.08840125,0.0001706,53.2184,319.6228,29.4151,330.6937,-8.788700000000001e-05,-1.687e-05,0.0,0 STARLINK-3079,1 49433U 21104AB  22221.98754351 -.00001687  00000-0 -87887-4 0  9998,2 49433  53.2184 319.6228 0001706  29.4151 330.6937 15.08840125 42589,6917.88,95.438,540.925,538.565,0.0
49433.0,STARLINK-3079,PAYLOAD,2022-08-10 09:14:22,15.08839989,0.0001619,53.218,317.8382,26.5736,333.5338,-6.7604e-05,-1.364e-05,0.0,0 STARLINK-3079,1 49433U 21104AB  22222.38498148 -.00001364  00000-0 -67604-4 0  9999,2 49433  53.2180 317.8382 0001619  26.5736 333.5338 15.08839989 42646,6917.88,95.438,540.865,538.625,0.0
49433.0,STARLINK-3079,PAYLOAD,2022-08-10 15:35:54,15.08854605,0.0001940999999999,53.2182,316.6514,46.5426,313.5727,-0.00011212,-2.073e-05,0.0,0 STARLINK-3079,1 49433U 21104AB  22222.64993361 -.00002073  00000-0 -11212-3 0  9996,2 49433  53.2182 316.6514 0001941  46.5426 313.5727 15.08854605 42684,6917.8359999999975,95.437,541.043,538.3580000000002,0.0
49433.0,STARLINK-3079,PAYLOAD,2022-08-11 12:15:55,15.08840182,0.0002048,53.2184,312.7869,47.1174,312.9989,-0.00011313,-2.088e-05,0.0,0 STARLINK-3079,1 49433U 21104AB  22223.51106065 -.00002088  00000-0 -11313-3 0  9998,2 49433  53.2184 312.7869 0002048  47.1174 312.9989 15.08840182 42815,6917.88,95.438,541.1619999999998,538.328,0.0
49433.0,STARLINK-3079,PAYLOAD,2022-08-11 15:26:41,15.08840597,0.0001998,53.2183,312.1916,46.288,313.8278,-3.5624e-05,-8.55e-06,0.0,0 STARLINK-3079,1 49433U 21104AB  22223.64353754 -.00000855  00000-0 -35624-4 0  9993,2 49433  53.2183 312.1916 0001998  46.2880 313.8278 15.08840597 42831,6917.879,95.438,541.126,538.361,0.0
49433.0,STARLINK-3079,PAYLOAD,2022-08-12 12:06:42,15.08836835,0.0001916999999999,53.2178,308.3248,42.0062,318.1077,-8.3477e-06,-4.21e-06,0.0,0 STARLINK-3079,1 49433U 21104AB  22224.50466079 -.00000421  00000-0 -83477-5 0  9993,2 49433  53.2178 308.3248 0001917  42.0062 318.1077 15.08836835 42966,6917.89,95.438,541.081,538.429,0.0
49433.0,STARLINK-3079,PAYLOAD,2022-08-12 15:17:28,15.08838584,0.0002058,53.2167,307.7288,32.2518,327.86,1.1559e-05,-1.04e-06,0.0,0 STARLINK-3079,1 49433U 21104AB  22224.63713907 -.00000104  00000-0  11559-4 0  9990,2 49433  53.2167 307.7288 0002058  32.2518 327.8600 15.08838584 42989,6917.885,95.438,541.173,538.326,0.0
49433.0,STARLINK-3079,PAYLOAD,2022-08-13 11:57:29,15.088333300000002,0.0001986,53.2169,303.8636,40.6011,319.5129,3.3394e-05,2.43e-06,0.0,0 STARLINK-3079,1 49433U 21104AB  22225.49826352  .00000243  00000-0  33394-4 0  9998,2 49433  53.2169 303.8636 0001986  40.6011 319.5129 15.08833330 43119,6917.901,95.438,541.14,538.3919999999998,0.0
49433.0,STARLINK-3079,PAYLOAD,2022-08-13 15:08:16,15.08831703,0.0001996999999999,53.2165,303.2684,41.4251,318.6892,1.9652e-05,2.5e-07,0.0,0 STARLINK-3079,1 49433U 21104AB  22225.63074545  .00000025  00000-0  19652-4 0  9992,2 49433  53.2165 303.2684 0001997  41.4251 318.6892 15.08831703 43130,6917.906,95.438,541.1519999999998,538.389,0.0
49433.0,STARLINK-3079,PAYLOAD,2022-08-14 11:48:16,15.08840978,0.0002130999999999,53.2172,299.4041,37.1527,322.9613,9.5608e-05,1.234e-05,0.0,0 STARLINK-3079,1 49433U 21104AB  22226.49185891  .00001234  00000-0  95608-4 0  9992,2 49433  53.2172 299.4041 0002131  37.1527 322.9613 15.08840978 43267,6917.877,95.437,541.217,538.268,0.0
49433.0,STARLINK-3079,PAYLOAD,2022-08-14 14:59:02,15.08842113,0.0002129,53.2172,298.8093,37.8296,322.2846,0.00010214,1.338e-05,0.0,0 STARLINK-3079,1 49433U 21104AB  22226.62433799  .00001338  00000-0  10214-3 0  9994,2 49433  53.2172 298.8093 0002129  37.8296 322.2846 15.08842113 43280,6917.874,95.437,541.212,538.266,0.0
49433.0,STARLINK-3079,PAYLOAD,2022-08-15 05:17:31,15.08833366,0.0002164,53.218,296.1347,44.0218,316.0946,9.811e-05,1.273e-05,0.0,0 STARLINK-3079,1 49433U 21104AB  22227.22050340  .00001273  00000-0  98110-4 0  9998,2 49433  53.2180 296.1347 0002164  44.0218 316.0946 15.08833366 43377,6917.901,95.438,541.263,538.269,0.0
